{
    "links": {
        "self": "http://www.neowsapp.com/rest/v1/neo/3712527?api_key=iIulBulltgU6a56xZRHN4H3l9WmuAYTsLGpBGhQ2"
    },
    "id": "3712527",
    "neo_reference_id": "3712527",
    "name": "(2015 DS198)",
    "designation": "2015 DS198",
    "nasa_jpl_url": "http://ssd.jpl.nasa.gov/sbdb.cgi?sstr=3712527",
    "absolute_magnitude_h": 23.5,
    "estimated_diameter": {
        "kilometers": {
            "estimated_diameter_min": 0.0530340723,
            "estimated_diameter_max": 0.1185877909
        },
        "meters": {
            "estimated_diameter_min": 53.0340723319,
            "estimated_diameter_max": 118.5877908577
        },
        "miles": {
            "estimated_diameter_min": 0.0329538346,
            "estimated_diameter_max": 0.0736870142
        },
        "feet": {
            "estimated_diameter_min": 173.9963058693,
            "estimated_diameter_max": 389.0675677576
        }
    },
    "is_potentially_hazardous_asteroid": false,
    "close_approach_data": [
        {
            "close_approach_date": "2015-02-14",
            "close_approach_date_full": "2015-Feb-14 01:05",
            "epoch_date_close_approach": 1423875900000,
            "relative_velocity": {
                "kilometers_per_second": "8.1478119536",
                "kilometers_per_hour": "29332.1230327811",
                "miles_per_hour": "18225.8405588967"
            },
            "miss_distance": {
                "astronomical": "0.1826173324",
                "lunar": "71.0381423036",
                "kilometers": "27319163.952121988",
                "miles": "16975341.3228119144"
            },
            "orbiting_body": "Earth"
        },
        {
            "close_approach_date": "2018-02-01",
            "close_approach_date_full": "2018-Feb-01 16:06",
            "epoch_date_close_approach": 1517501160000,
            "relative_velocity": {
                "kilometers_per_second": "12.7456954911",
                "kilometers_per_hour": "45884.5037680277",
                "miles_per_hour": "28510.8462440836"
            },
            "miss_distance": {
                "astronomical": "0.3662806775",
                "lunar": "142.4831835475",
                "kilometers": "54794809.176156925",
                "miles": "34047915.599238565"
            },
            "orbiting_body": "Earth"
        }
    ],
    "orbital_data": {
        "orbit_id": "3",
        "orbit_determination_date": "2017-04-06 08:35:23",
        "first_observation_date": "2015-02-23",
        "last_observation_date": "2015-02-26",
        "data_arc_in_days": 3,
        "observations_used": 9,
        "orbit_uncertainty": "8",
        "minimum_orbit_intersection": ".141074",
        "jupiter_tisserand_invariant": "4.864",
        "epoch_osculation": "2457077.5",
        "eccentricity": ".1825190946173643",
        "semi_major_axis": "1.332364261945295",
        "inclination": "15.63066454552073",
        "ascending_node_longitude": "328.0693445208368",
        "orbital_period": "561.7368175487246",
        "perihelion_distance": "1.089182343154507",
        "perihelion_argument": "135.9762286718396",
        "aphelion_distance": "1.575546180736083",
        "perihelion_time": "2457017.170136081735",
        "mean_anomaly": "38.6635704338385",
        "mean_motion": ".6408695117598802",
        "equinox": "J2000",
        "orbit_class": {
            "orbit_class_type": "AMO",
            "orbit_class_description": "Near-Earth asteroid orbits similar to that of 1221 Amor",
            "orbit_class_range": "1.017 AU < q (perihelion) < 1.3 AU"
        }
    },
    "is_sentry_object": false
}